[{"OBJECT_NAME":"STARLINK-30822","OBJECT_ID":"2023-167U","EPOCH":"2026-03-09T13:30:21.009024","MEAN_MOTION":15.26729916,"ECCENTRICITY":4.95e-5,"INCLINATION":43.0017,"RA_OF_ASC_NODE":144.2908,"ARG_OF_PERICENTER":333.5405,"MEAN_ANOMALY":26.5421,"EPHEMERIS_TYPE":0,"CLASSIFICATION_TYPE":"U","NORAD_CAT_ID":58193,"ELEMENT_SET_NO":999,"REV_AT_EPOCH":13096,"BSTAR":4.971e-5,"MEAN_MOTION_DOT":1.074e-5,"MEAN_MOTION_DDOT":0},{"OBJECT_NAME":"TEVEL2-8","OBJECT_ID":"2025-052AF","EPOCH":"2026-03-09T16:02:08.542752","MEAN_MOTION":15.28392908,"ECCENTRICITY":0.0008031,"INCLINATION":97.4055,"RA_OF_ASC_NODE":324.2923,"ARG_OF_PERICENTER":124.9191,"MEAN_ANOMALY":235.2804,"EPHEMERIS_TYPE":0,"CLASSIFICATION_TYPE":"U","NORAD_CAT_ID":63239,"ELEMENT_SET_NO":999,"REV_AT_EPOCH":5480,"BSTAR":0.00069303947,"MEAN_MOTION_DOT":0.0001913,"MEAN_MOTION_DDOT":0}]
